ONEWEB-0446             
1 51640U 22012U   25209.72031618 -.00000604  00000+0 -17673-2 0  9996
2 51640  87.8802 100.8071 0001651  71.0509 289.0798 13.10371254168266
ONEWEB-0448             
1 51641U 22012V   25209.41986048 -.00000672  00000+0 -19621-2 0  9999
2 51641  87.8806 100.8667 0001867  79.1532 280.9806 13.10374299166895
ONEWEB-0449             
1 51642U 22012W   25209.73027495  .00000232  00000+0  62963-3 0  9995
2 51642  87.8803 100.7777 0002012  95.9482 264.1875 13.10369628168248
ONEWEB-0451             
1 51643U 22012X   25209.56887315 -.00000315  00000+0 -84445-3 0  9995
2 51643  87.9034  70.2420 0001725  87.8475 272.2854 13.17649235171045
ONEWEB-0452             
1 51644U 22012Y   25209.56718601 -.00000248  00000+0 -67265-3 0  9993
2 51644  87.9037  70.3066 0001905  92.0883 268.0467 13.17649574171057
ONEWEB-0456             
1 51646U 22012AA  25209.74023770 -.00000203  00000+0 -61636-3 0  9998
2 51646  87.8807 100.7334 0001982  73.5533 286.5812 13.10377008168272
ONEWEB-0457             
1 51647U 22012AB  25209.86971560 -.00000413  00000+0 -12205-2 0  9991
2 51647  87.8801 100.7657 0001501  84.7111 275.4187 13.10370600168305
ONEWEB-0458             
1 51648U 22012AC  25209.20406676 -.00000168  00000+0 -51821-3 0  9996
2 51648  87.8796 100.8737 0001889  82.3265 277.8077 13.10374735166879
ONEWEB-0461             
1 51649U 22012AD  25209.89287409  .00000068  00000+0  14219-3 0  9990
2 51649  87.9031  70.1911 0001691  81.1588 278.9735 13.17649448172606
ONEWEB-0463             
1 51650U 22012AE  25209.57056649 -.00000009  00000+0 -57632-4 0  9991
2 51650  87.9029  70.3199 0001785  84.4161 275.7174 13.17650083171059
ONEWEB-0464             
1 51651U 22012AF  25209.73525398 -.00000541  00000+0 -15875-2 0  9994
2 51651  87.8809 100.8020 0002112  72.8657 287.2701 13.10374976168263
ONEWEB-0468             
1 51652U 22012AG  25209.74188979 -.00000231  00000+0 -69692-3 0  9999
2 51652  87.8812 100.7923 0001869  76.9325 283.2011 13.10375250168237
ONEWEB-0473             
1 51653U 22012AH  25209.72695289 -.00000609  00000+0 -17800-2 0  9997
2 51653  87.8808 100.7989 0001923  79.4486 280.6857 13.10372909168240
ONEWEB-0474             
1 51654U 22012AJ  25209.71865871 -.00001408  00000+0 -40714-2 0  9991
2 51654  87.8804 100.7603 0002299  77.0799 283.0585 13.10375952168222
ONEWEB-0475             
1 51655U 22012AK  25209.58238932  .00000045  00000+0  81599-4 0  9991
2 51655  87.9034  70.2981 0002535  91.3741 268.7681 13.17649046171077
ONEWEB-0490             
1 54113U 22138A   25209.47267828  .00000085  00000+0  18040-3 0  9990
2 54113  87.9230   9.2983 0001990  89.0947 271.0413 13.19726893134131
ONEWEB-0492             
1 54114U 22138B   25209.49797601  .00000094  00000+0  20187-3 0  9995
2 54114  87.9226   9.3173 0001834  86.8966 273.2376 13.19725883134143
