[{"OBJECT_NAME":"ONEWEB-0446","OBJECT_ID":"2022-012U","EPOCH":"2025-07-28T17:17:15.317952","MEAN_MOTION":13.10371254,"ECCENTRICITY":0.0001651,"INCLINATION":87.8802,"RA_OF_ASC_NODE":100.8071,"ARG_OF_PERICENTER":71.0509,"MEAN_ANOMALY":289.0798,"EPHEMERIS_TYPE":0,"CLASSIFICATION_TYPE":"U","NORAD_CAT_ID":51640,"ELEMENT_SET_NO":999,"REV_AT_EPOCH":16826,"BSTAR":-0.0017673,"MEAN_MOTION_DOT":-6.04e-6,"MEAN_MOTION_DDOT":0},{"OBJECT_NAME":"ONEWEB-0448","OBJECT_ID":"2022-012V","EPOCH":"2025-07-28T10:04:35.945472","MEAN_MOTION":13.10374299,"ECCENTRICITY":0.0001867,"INCLINATION":87.8806,"RA_OF_ASC_NODE":100.8667,"ARG_OF_PERICENTER":79.1532,"MEAN_ANOMALY":280.9806,"EPHEMERIS_TYPE":0,"CLASSIFICATION_TYPE":"U","NORAD_CAT_ID":51641,"ELEMENT_SET_NO":999,"REV_AT_EPOCH":16689,"BSTAR":-0.0019621,"MEAN_MOTION_DOT":-6.72e-6,"MEAN_MOTION_DDOT":0},{"OBJECT_NAME":"ONEWEB-0449","OBJECT_ID":"2022-012W","EPOCH":"2025-07-28T17:31:35.755680","MEAN_MOTION":13.10369628,"ECCENTRICITY":0.0002012,"INCLINATION":87.8803,"RA_OF_ASC_NODE":100.7777,"ARG_OF_PERICENTER":95.9482,"MEAN_ANOMALY":264.1875,"EPHEMERIS_TYPE":0,"CLASSIFICATION_TYPE":"U","NORAD_CAT_ID":51642,"ELEMENT_SET_NO":999,"REV_AT_EPOCH":16824,"BSTAR":0.00062963,"MEAN_MOTION_DOT":2.32e-6,"MEAN_MOTION_DDOT":0},{"OBJECT_NAME":"ONEWEB-0451","OBJECT_ID":"2022-012X","EPOCH":"2025-07-28T13:39:10.640160","MEAN_MOTION":13.17649235,"ECCENTRICITY":0.0001725,"INCLINATION":87.9034,"RA_OF_ASC_NODE":70.242,"ARG_OF_PERICENTER":87.8475,"MEAN_ANOMALY":272.2854,"EPHEMERIS_TYPE":0,"CLASSIFICATION_TYPE":"U","NORAD_CAT_ID":51643,"ELEMENT_SET_NO":999,"REV_AT_EPOCH":17104,"BSTAR":-0.00084445,"MEAN_MOTION_DOT":-3.15e-6,"MEAN_MOTION_DDOT":0},{"OBJECT_NAME":"ONEWEB-0452","OBJECT_ID":"2022-012Y","EPOCH":"2025-07-28T13:36:44.871264","MEAN_MOTION":13.17649574,"ECCENTRICITY":0.0001905,"INCLINATION":87.9037,"RA_OF_ASC_NODE":70.3066,"ARG_OF_PERICENTER":92.0883,"MEAN_ANOMALY":268.0467,"EPHEMERIS_TYPE":0,"CLASSIFICATION_TYPE":"U","NORAD_CAT_ID":51644,"ELEMENT_SET_NO":999,"REV_AT_EPOCH":17105,"BSTAR":-0.00067265,"MEAN_MOTION_DOT":-2.48e-6,"MEAN_MOTION_DDOT":0},{"OBJECT_NAME":"ONEWEB-0456","OBJECT_ID":"2022-012AA","EPOCH":"2025-07-28T17:45:56.537280","MEAN_MOTION":13.10377008,"ECCENTRICITY":0.0001982,"INCLINATION":87.8807,"RA_OF_ASC_NODE":100.7334,"ARG_OF_PERICENTER":73.5533,"MEAN_ANOMALY":286.5812,"EPHEMERIS_TYPE":0,"CLASSIFICATION_TYPE":"U","NORAD_CAT_ID":51646,"ELEMENT_SET_NO":999,"REV_AT_EPOCH":16827,"BSTAR":-0.00061636,"MEAN_MOTION_DOT":-2.03e-6,"MEAN_MOTION_DDOT":0},{"OBJECT_NAME":"ONEWEB-0457","OBJECT_ID":"2022-012AB","EPOCH":"2025-07-28T20:52:23.427840","MEAN_MOTION":13.103706,"ECCENTRICITY":0.0001501,"INCLINATION":87.8801,"RA_OF_ASC_NODE":100.7657,"ARG_OF_PERICENTER":84.7111,"MEAN_ANOMALY":275.4187,"EPHEMERIS_TYPE":0,"CLASSIFICATION_TYPE":"U","NORAD_CAT_ID":51647,"ELEMENT_SET_NO":999,"REV_AT_EPOCH":16830,"BSTAR":-0.0012205,"MEAN_MOTION_DOT":-4.13e-6,"MEAN_MOTION_DDOT":0},{"OBJECT_NAME":"ONEWEB-0458","OBJECT_ID":"2022-012AC","EPOCH":"2025-07-28T04:53:51.368064","MEAN_MOTION":13.10374735,"ECCENTRICITY":0.0001889,"INCLINATION":87.8796,"RA_OF_ASC_NODE":100.8737,"ARG_OF_PERICENTER":82.3265,"MEAN_ANOMALY":277.8077,"EPHEMERIS_TYPE":0,"CLASSIFICATION_TYPE":"U","NORAD_CAT_ID":51648,"ELEMENT_SET_NO":999,"REV_AT_EPOCH":16687,"BSTAR":-0.00051821,"MEAN_MOTION_DOT":-1.68e-6,"MEAN_MOTION_DDOT":0},{"OBJECT_NAME":"ONEWEB-0461","OBJECT_ID":"2022-012AD","EPOCH":"2025-07-28T21:25:44.321376","MEAN_MOTION":13.17649448,"ECCENTRICITY":0.0001691,"INCLINATION":87.9031,"RA_OF_ASC_NODE":70.1911,"ARG_OF_PERICENTER":81.1588,"MEAN_ANOMALY":278.9735,"EPHEMERIS_TYPE":0,"CLASSIFICATION_TYPE":"U","NORAD_CAT_ID":51649,"ELEMENT_SET_NO":999,"REV_AT_EPOCH":17260,"BSTAR":0.00014219,"MEAN_MOTION_DOT":6.8e-7,"MEAN_MOTION_DDOT":0},{"OBJECT_NAME":"ONEWEB-0463","OBJECT_ID":"2022-012AE","EPOCH":"2025-07-28T13:41:36.944736","MEAN_MOTION":13.17650083,"ECCENTRICITY":0.0001785,"INCLINATION":87.9029,"RA_OF_ASC_NODE":70.3199,"ARG_OF_PERICENTER":84.4161,"MEAN_ANOMALY":275.7174,"EPHEMERIS_TYPE":0,"CLASSIFICATION_TYPE":"U","NORAD_CAT_ID":51650,"ELEMENT_SET_NO":999,"REV_AT_EPOCH":17105,"BSTAR":-5.7632e-5,"MEAN_MOTION_DOT":-9.0e-8,"MEAN_MOTION_DDOT":0},{"OBJECT_NAME":"ONEWEB-0464","OBJECT_ID":"2022-012AF","EPOCH":"2025-07-28T17:38:45.943872","MEAN_MOTION":13.10374976,"ECCENTRICITY":0.0002112,"INCLINATION":87.8809,"RA_OF_ASC_NODE":100.802,"ARG_OF_PERICENTER":72.8657,"MEAN_ANOMALY":287.2701,"EPHEMERIS_TYPE":0,"CLASSIFICATION_TYPE":"U","NORAD_CAT_ID":51651,"ELEMENT_SET_NO":999,"REV_AT_EPOCH":16826,"BSTAR":-0.0015875,"MEAN_MOTION_DOT":-5.41e-6,"MEAN_MOTION_DDOT":0},{"OBJECT_NAME":"ONEWEB-0468","OBJECT_ID":"2022-012AG","EPOCH":"2025-07-28T17:48:19.277856","MEAN_MOTION":13.1037525,"ECCENTRICITY":0.0001869,"INCLINATION":87.8812,"RA_OF_ASC_NODE":100.7923,"ARG_OF_PERICENTER":76.9325,"MEAN_ANOMALY":283.2011,"EPHEMERIS_TYPE":0,"CLASSIFICATION_TYPE":"U","NORAD_CAT_ID":51652,"ELEMENT_SET_NO":999,"REV_AT_EPOCH":16823,"BSTAR":-0.00069692,"MEAN_MOTION_DOT":-2.31e-6,"MEAN_MOTION_DDOT":0},{"OBJECT_NAME":"ONEWEB-0473","OBJECT_ID":"2022-012AH","EPOCH":"2025-07-28T17:26:48.729696","MEAN_MOTION":13.10372909,"ECCENTRICITY":0.0001923,"INCLINATION":87.8808,"RA_OF_ASC_NODE":100.7989,"ARG_OF_PERICENTER":79.4486,"MEAN_ANOMALY":280.6857,"EPHEMERIS_TYPE":0,"CLASSIFICATION_TYPE":"U","NORAD_CAT_ID":51653,"ELEMENT_SET_NO":999,"REV_AT_EPOCH":16824,"BSTAR":-0.00178,"MEAN_MOTION_DOT":-6.09e-6,"MEAN_MOTION_DDOT":0},{"OBJECT_NAME":"ONEWEB-0474","OBJECT_ID":"2022-012AJ","EPOCH":"2025-07-28T17:14:52.112544","MEAN_MOTION":13.10375952,"ECCENTRICITY":0.0002299,"INCLINATION":87.8804,"RA_OF_ASC_NODE":100.7603,"ARG_OF_PERICENTER":77.0799,"MEAN_ANOMALY":283.0585,"EPHEMERIS_TYPE":0,"CLASSIFICATION_TYPE":"U","NORAD_CAT_ID":51654,"ELEMENT_SET_NO":999,"REV_AT_EPOCH":16822,"BSTAR":-0.0040714,"MEAN_MOTION_DOT":-1.408e-5,"MEAN_MOTION_DDOT":0},{"OBJECT_NAME":"ONEWEB-0475","OBJECT_ID":"2022-012AK","EPOCH":"2025-07-28T13:58:38.437248","MEAN_MOTION":13.17649046,"ECCENTRICITY":0.0002535,"INCLINATION":87.9034,"RA_OF_ASC_NODE":70.2981,"ARG_OF_PERICENTER":91.3741,"MEAN_ANOMALY":268.7681,"EPHEMERIS_TYPE":0,"CLASSIFICATION_TYPE":"U","NORAD_CAT_ID":51655,"ELEMENT_SET_NO":999,"REV_AT_EPOCH":17107,"BSTAR":8.1599e-5,"MEAN_MOTION_DOT":4.5e-7,"MEAN_MOTION_DDOT":0},{"OBJECT_NAME":"ONEWEB-0490","OBJECT_ID":"2022-138A","EPOCH":"2025-07-28T11:20:39.403392","MEAN_MOTION":13.19726893,"ECCENTRICITY":0.000199,"INCLINATION":87.923,"RA_OF_ASC_NODE":9.2983,"ARG_OF_PERICENTER":89.0947,"MEAN_ANOMALY":271.0413,"EPHEMERIS_TYPE":0,"CLASSIFICATION_TYPE":"U","NORAD_CAT_ID":54113,"ELEMENT_SET_NO":999,"REV_AT_EPOCH":13413,"BSTAR":0.0001804,"MEAN_MOTION_DOT":8.5e-7,"MEAN_MOTION_DDOT":0},{"OBJECT_NAME":"ONEWEB-0492","OBJECT_ID":"2022-138B","EPOCH":"2025-07-28T11:57:05.127264","MEAN_MOTION":13.19725883,"ECCENTRICITY":0.0001834,"INCLINATION":87.9226,"RA_OF_ASC_NODE":9.3173,"ARG_OF_PERICENTER":86.8966,"MEAN_ANOMALY":273.2376,"EPHEMERIS_TYPE":0,"CLASSIFICATION_TYPE":"U","NORAD_CAT_ID":54114,"ELEMENT_SET_NO":999,"REV_AT_EPOCH":13414,"BSTAR":0.00020187,"MEAN_MOTION_DOT":9.4e-7,"MEAN_MOTION_DDOT":0}]
